09458   14.24  0.15 K243V 101.79868  319.82952  254.31826    4.22821  0.1559174  0.24071484   2.5593763    MPO840952        26 1982-2024 0.77 M-v 3Ek MPCLINUX   0400   (9458) Beaumont           20240613
09459   13.83  0.15 K24AH 169.12086  290.11590  319.38517    4.76885  0.1675191  0.28132944   2.3067079    E2024-BE9        23 1978-2024 0.53 M-v 3Ek MPCLINUX   0400   (9459) Gracecai           20240103
09460   12.93  0.15 K243V 139.08779  349.67915   70.20272   13.66323  0.1516732  0.22655025   2.6649743    MPO840952        23 1974-2024 0.69 M-v 3Ek MPCLINUX   0400   (9460) McGlynn            20240712
09461   14.27  0.15 K243V 115.66586   52.22364  294.68105    1.21901  0.0418951  0.21734276   2.7397185    MPO840952        24 1977-2024 0.64 M-v 3Ek MPCLINUX   0400   (9461) Cotingkeh          20240214
09462   14.42  0.15 K243V 295.24442  358.98837  323.03075    1.56707  0.2193648  0.26881839   2.3777347    MPO840952        24 1984-2024 0.55 M-v 3Ek MPCLINUX   0400   (9462) 1998 HC37          20240707
09463   14.33  0.15 K243V 343.85222   21.06446  248.30417    0.84267  0.0525841  0.19460835   2.9491378    MPO840952        25 1979-2024 0.76 M-v 3Ek MPCLINUX   0400   (9463) Criscione          20240617
09464   13.29  0.15 K243V  35.32795  243.63503   99.41451    7.95910  0.2972396  0.20353837   2.8622343    MPO840952        25 1980-2024 0.59 M-v 3Ek MPCLINUX   0400   (9464) 1998 HL117         20240202
09465   13.65  0.15 K243V 243.58589  118.85887  184.79082   11.01797  0.0993154  0.18564700   3.0432952    MPO840952        25 1971-2024 0.69 M-v 3Ek MPCLINUX   0400   (9465) Fergusonsam        20240605
09466   14.65  0.15 K24AH 100.93256  167.54546  201.08695    5.49811  0.1775755  0.28233257   2.3012408    E2024-F93        23 1988-2024 0.43 M-v 3Ek MPCLINUX   0400   (9466) Shishir            20240210
09467   13.46  0.15 K243V 189.39317  112.94899  194.11002    5.38227  0.2554750  0.17682494   3.1436948    MPO840952        26 1976-2024 0.48 M-v 3Ek MPCLINUX   0400   (9467) 1998 KQ47          20240409
09468   14.80  0.15 K24AH  87.50708  159.24933  197.20112   10.00705  0.1438609  0.27877461   2.3207796    E2024-A34        23 1981-2023 0.51 M-v 3Ek MPCLINUX   0400   (9468) Brewer             20231211
09469   15.59  0.15 K24AH  92.30611   79.38482  213.83418    2.75632  0.1712911  0.27198719   2.3592307    E2024-A34        22 1973-2023 0.66 M-v 3Ek MPCLINUX   0400   (9469) Shashank           20230911
09470   14.01  0.15 K243V 202.59320  174.05101  162.91288    2.04108  0.1788039  0.17599411   3.1535808    MPO840952        29 1981-2024 0.74 M-v 3Ek MPCLINUX   0400   (9470) Jussieu            20240605
09471   13.59  0.15 K243V  98.53627  108.75130  310.08869    2.42977  0.0824382  0.21142498   2.7906059    MPO840952        26 1979-2024 0.70 M-v 3Ek MPCLINUX   0400   (9471) Ostend             20240627
09472   13.84  0.15 K243V 303.25632  128.70855  178.19047    1.05329  0.1604533  0.18411072   3.0602014    MPO840952        26 1976-2024 0.80 M-v 3Ek MPCLINUX   0400   (9472) Bruges             20240707
09473   14.57  0.15 K243V 105.40288  295.45374  139.67347    4.18711  0.0259935  0.21455774   2.7633756    MPO840952        23 1993-2024 0.76 M-v 3Ek MPCLINUX   0400   (9473) Ghent              20240609
09474   14.38  0.15 K243V 117.57478  155.77201  210.59667    5.02954  0.1841206  0.28518394   2.2858760    MPO840952        23 1981-2024 0.64 M-v 3Ek MPCLINUX   0400   (9474) Cassadrury         20240508
09475   13.41  0.15 K243V 236.99443  166.27321  103.03945    3.59002  0.1401548  0.17510092   3.1642959    MPO840952        27 1976-2024 0.73 M-v 3Ek MPCLINUX   0400   (9475) 1998 QC19          20240409
09476   14.25  0.15 K243V 269.64968   96.26141  204.05498    4.49127  0.1096123  0.25658144   2.4527459    MPO840952        22 1979-2024 0.58 M-v 3Ek MPCLINUX   0400   (9476) Vincenthuang       20240709
09477   15.37  0.15 K243V 261.70249   24.13069  183.96080    1.78943  0.0495326  0.28394677   2.2925110    MPO840952        20 1960-2024 0.63 M-v 3Ek MPCLINUX   0400   (9477) Kefennell          20240504
09478   14.29  0.15 K243V 313.78202  275.48613    4.04710    4.69083  0.1417151  0.18118036   3.0931096    MPO840952        23 1954-2024 0.78 M-v 3Ek MPCLINUX   0400   (9478) Caldeyro           20240707
09479   15.26  0.15 K243V  77.15279  283.14099  352.37588    4.53973  0.0915540  0.23260839   2.6184993    MPO840952        24 1960-2024 0.80 M-v 3Ek MPCLINUX   0400   (9479) Madresplazamayo    20240706
09480   13.36  0.15 K243V 151.59517   66.87772  353.55019    0.58094  0.1502276  0.17811054   3.1285491    MPO840952        27 1960-2024 0.73 M-v 3Ek MPCLINUX   0400   (9480) Inti               20240707
09481   14.26  0.15 K243V 333.74064   94.62296   74.42285    2.74097  0.0932375  0.28498696   2.2869292    MPO840952        24 1960-2024 0.57 M-v 3Ek MPCLINUX   0400   (9481) Menchu             20240605
09482   15.87  0.15 K243V 153.27957   15.00501  301.66550    2.79936  0.1865257  0.28463235   2.2888283    MPO840952        23 1953-2024 0.74 M-v 3Ek MPCLINUX   0400   (9482) Rubendario         20240205
09483   13.60  0.15 K243V 212.11335  184.36826  198.42929    8.70957  0.1664931  0.17964789   3.1106750    MPO840952        27 1960-2024 0.70 M-v 3Ek MPCLINUX   0400   (9483) Chagas             20240709
09484   13.67  0.15 K243V 261.81697  246.34483   89.67817    1.92273  0.1641159  0.18100990   3.0950511    MPO840952        28 1954-2024 0.74 M-v 3Ek MPCLINUX   0400   (9484) Wanambi            20240710
09485   14.96  0.15 K24AH 349.07194  219.29556  219.55321    3.19261  0.1843785  0.23276555   2.6173206    E2024-EC3        21 1960-2023 0.67 M-v 3Ek MPCLINUX   0400   (9485) Uluru              20231110
09486   14.94  0.15 K243V 123.09515  296.65048  192.98570    4.22715  0.1038264  0.25867157   2.4395155    MPO840952        23 1949-2024 0.66 M-v 3Ek MPCLINUX   0400   (9486) Utemorrah          20240707
09487   13.80  0.15 K24AH 185.99227  206.83013  108.60786    3.30774  0.0608205  0.20637607   2.8359364    E2024-J78        25 1960-2024 0.59 M-v 3Ek MPCLINUX   0400   (9487) Kupe               20240504
09488   14.71  0.15 K243V 273.78372  188.47398    8.91193    6.31904  0.1166845  0.28436120   2.2902831    MPO840952        23 1960-2024 0.63 M-v 3Ek MPCLINUX   0400   (9488) Huia               20240410
09489   14.65  0.15 K243V  57.19892   78.81097  199.53751    4.74331  0.0971091  0.23052141   2.6342796    MPO840952        24 1971-2024 0.79 M-v 3Ek MPCLINUX   0400   (9489) Tanemahuta         20240709
09490   13.34  0.15 K24AH 207.59663  231.27244  324.87791    3.57356  0.0925063  0.19504656   2.9447190    E2024-EC3        29 1971-2023 0.60 M-v 3Ek MPCLINUX   0400   (9490) Gosemeijer         20231109
09491   15.10  0.15 K243V 336.65598  263.21897  350.34504    5.04764  0.1342190  0.29912513   2.2142880    MPO840952        21 1971-2024 0.70 M-v 3Ek MPCLINUX   0400   (9491) Thooft             20240710
09492   14.82  0.15 K243V 295.54761  253.25862  136.36874    2.90708  0.1350708  0.30536463   2.1840214    MPO840952        25 1971-2024 0.53 M-v 3Ek MPCLINUX   0400   (9492) Veltman            20240712
09493   13.84  0.15 K24AH  29.60904  231.65640  210.88401    7.34227  0.1678308  0.23639207   2.5904832    E2024-JQ5        24 1969-2024 0.59 M-v 3Ek MPCLINUX   0400   (9493) Enescu             20240204
09494   14.43  0.15 K243V 221.27267   65.75270    6.06479    3.77041  0.0841361  0.30340639   2.1934087    MPO840952        23 1955-2024 0.59 M-v 3Ek MPCLINUX   0400   (9494) Donici             20240711
09495   14.80  0.15 K243V 273.91036   22.16248   25.54167    4.64489  0.1291891  0.30504507   2.1855465    MPO840952        22 1971-2024 0.63 M-v 3Ek MPCLINUX   0400   (9495) Eminescu           20240712
09496   13.63  0.15 K243V 339.99486  325.41572  108.25830    2.94882  0.0556199  0.19765518   2.9187524    MPO840952        25 1971-2024 0.60 M-v 3Ek MPCLINUX   0400   (9496) Ockels             20240305
09497   13.62  0.15 K243V 285.83750  263.37435  178.99202    2.25626  0.1029203  0.19522739   2.9429003    MPO840952        26 1950-2024 0.74 M-v 3Ek MPCLINUX   0400   (9497) Dwingeloo          20240713
09498   15.99  0.15 K24AH 104.10599   63.40780  213.84693    1.75969  0.2061282  0.27230727   2.3573816    E2024-A48        21 1973-2023 0.72 M-v 3Ek MPCLINUX   0400   (9498) Westerbork         20230911
09499   13.91  0.15 K24AH 311.56481  163.48402  294.72519    0.95161  0.0074852  0.19529779   2.9421930    E2024-A48        27 1971-2023 0.64 M-v 3Ek MPCLINUX   0400   (9499) Excalibur          20231106
09500   14.63  0.15 K243V 319.96653  260.16123  194.30846   12.73940  0.1672709  0.23562081   2.5961331    MPO840952        24 1971-2023 0.52 M-v 3Ek MPCLINUX   0400   (9500) Camelot            20231210
09501   15.05  0.15 K24AH 109.40050  116.41502  212.90728    3.06887  0.2661664  0.23629590   2.5911860    E2024-E73        22 1973-2024 0.63 M-v 3Ek MPCLINUX   0400   (9501) Ywain              20240305
09502   15.21  0.15 K24AH 188.70118   76.09729  185.74755    4.76027  0.1977252  0.27574687   2.3377370    E2024-A55        23 1973-2023 0.65 M-v 3Ek MPCLINUX   0400   (9502) Gaimar             20231207
09503   13.22  0.15 K24AH   0.04709   90.69755    6.53697    8.50573  0.0441900  0.17808242   3.1288784    E2024-H78        25 1973-2024 0.60 M-v 3Ek MPCLINUX   0400   (9503) Agrawain           20240203
09504   13.89  0.15 K24AH  33.80578  324.59299   41.61638    2.39146  0.0791409  0.19478372   2.9473675    E2024-A55        28 1971-2023 0.67 M-v 3Ek MPCLINUX   0400   (9504) Lionel             20231112
09505   14.01  0.15 K243V 327.51170  143.02848   50.15423    3.30558  0.2336152  0.18424830   3.0586778    MPO840952        24 1973-2024 0.64 M-v 3Ek MPCLINUX   0400   (9505) Lohengrin          20240529
09506   13.19  0.15 K243V  85.22126  252.99008  301.10217    7.68762  0.0340017  0.19038628   2.9925790    MPO840952        25 1973-2024 0.72 M-v 3Ek MPCLINUX   0400   (9506) Telramund          20240707
